QIANFAN-60              
1 62790U 25016F   25345.96532417  .00000077  00000+0  10064-3 0  9991
2 62790  88.9758 103.1559 0014941 351.4047   8.6846 13.50983001 47124
QIANFAN-61              
1 62791U 25016G   25345.92404412  .00000188  00000+0  27301-3 0  9996
2 62791  88.9825 103.3225 0013934 351.2240   8.8666 13.50980062 47133
QIANFAN-62              
1 62792U 25016H   25346.00222039  .00000201  00000+0  29242-3 0  9992
2 62792  88.9772 103.1833 0015309 350.8127   9.2742 13.50976630 47131
QIANFAN-63              
1 62793U 25016J   25345.95287438  .00000194  00000+0  28235-3 0  9992
2 62793  88.9778 103.1399 0015506 356.5052   3.5988 13.50983237 47167
QIANFAN-64              
1 62794U 25016K   25345.99397589  .00000203  00000+0  29611-3 0  9996
2 62794  88.9765 103.1098 0013268 349.8653  10.2229 13.50978405 47169
QIANFAN-65              
1 62795U 25016L   25345.91582181  .00000198  00000+0  28845-3 0  9994
2 62795  88.9761 103.1439 0013149 352.0358   8.0583 13.50984014 47139
QIANFAN-66              
1 62796U 25016M   25345.94459844  .00000191  00000+0  27703-3 0  9992
2 62796  88.9781 103.1110 0014141 346.7342  13.3435 13.50976775 47189
QIANFAN-67              
1 62797U 25016N   25345.94885417  .00000201  00000+0  29218-3 0  9997
2 62797  88.9771 103.1362 0014295 354.0116   6.0862 13.50980983 47155
QIANFAN-68              
1 62798U 25016P   25345.94055024  .00000195  00000+0  28269-3 0  9998
2 62798  88.9774 103.1822 0014303 352.1535   7.9391 13.50983363 47134
QIANFAN-69              
1 62799U 25016Q   25345.95704569  .00000191  00000+0  27723-3 0  9995
2 62799  88.9753 103.0500 0015074 352.9976   7.0963 13.50986180 47177
QIANFAN-70              
1 62800U 25016R   25345.97346410  .00000191  00000+0  27711-3 0  9994
2 62800  88.9774 103.1867 0014433 342.9159  17.1504 13.50977063 47139
QIANFAN-71              
1 62801U 25016S   25345.96930771  .00000184  00000+0  26662-3 0  9999
2 62801  88.9768 103.1666 0015094 356.6795   3.4254 13.50984155 47132
QIANFAN-72              
1 62802U 25016T   25345.98578035  .00000209  00000+0  30469-3 0  9991
2 62802  88.9759 103.1784 0018544   2.9819 357.1440 13.50984195 47124
QIANFAN-73              
1 63159U 25046A   25346.01285605  .00000151  00000+0  21556-3 0  9996
2 63159  88.9760 320.0978 0016442 121.4847 238.7913 13.50976969 47310
QIANFAN-74              
1 63160U 25046B   25345.99624548  .00000183  00000+0  26529-3 0  9997
2 63160  88.9761 319.9881 0001995  78.4863 281.6512 13.50979410 47371
QIANFAN-75              
1 63161U 25046C   25345.98353676  .00000200  00000+0  29133-3 0  9992
2 63161  88.9763 320.2231 0017490 124.5916 235.6888 13.50978364 47245
QIANFAN-76              
1 63162U 25046D   25345.98015695  .00000164  00000+0  23562-3 0  9998
2 63162  88.9761 320.2042 0015029 124.3825 235.8750 13.50970451 47257
QIANFAN-77              
1 63163U 25046E   25345.96899827  .00000453  00000+0  31976-3 0  9993
2 63163  88.9763 318.2185 0017005  83.2692 277.0419 13.96087743 48340
QIANFAN-78              
1 63164U 25046F   25346.02105844  .00000164  00000+0  23571-3 0  9992
2 63164  88.9761 320.0639 0016348 126.8208 233.4446 13.50977189 47336
QIANFAN-79              
1 63165U 25046G   25345.97565699  .00000176  00000+0  25415-3 0  9996
2 63165  88.9764 320.1760 0016084 125.2548 235.0110 13.50978793 47274
QIANFAN-80              
1 63166U 25046H   25345.99217303  .00000197  00000+0  28584-3 0  9998
2 63166  88.9762 319.8811 0014960 128.7215 231.5277 13.50976457 47433
QIANFAN-81              
1 63167U 25046J   25345.97058506  .00000216  00000+0  31518-3 0  9998
2 63167  88.9762 319.9514 0016229 118.5933 241.6853 13.51002236 47381
QIANFAN-82              
1 63168U 25046K   25346.00462006  .00000200  00000+0  29137-3 0  9995
2 63168  88.9762 319.9918 0014207 124.9858 235.2629 13.50975635 47371
QIANFAN-83              
1 63169U 25046L   25345.96422480  .00000227  00000+0  27869-3 0  9991
2 63169  88.9762 319.7738 0015827 112.3212 247.9625 13.61974187 47496
QIANFAN-84              
1 63170U 25046M   25345.95836578  .00000163  00000+0  23351-3 0  9990
2 63170  88.9761 320.1293 0017238 122.8950 237.3862 13.50986634 47294
QIANFAN-85              
1 63171U 25046N   25345.95511895  .00000212  00000+0  30931-3 0  9990
2 63171  88.9761 320.0013 0014580 124.1870 236.0666 13.50976177 47364
QIANFAN-86              
1 63172U 25046P   25345.96344653  .00000209  00000+0  30528-3 0  9996
2 63172  88.9764 319.8625 0012375 127.0266 233.2019 13.50976000 47449
QIANFAN-87              
1 63173U 25046Q   25346.00883947  .00000178  00000+0  25710-3 0  9999
2 63173  88.9760 319.9696 0013128 123.0571 237.1843 13.50974018 47385
QIANFAN-88              
1 63174U 25046R   25345.95110747  .00000190  00000+0  27555-3 0  9997
2 63174  88.9762 319.9300 0013336 130.6275 229.6038 13.50980443 47400
QIANFAN-89              
1 63175U 25046S   25345.98797792  .00000185  00000+0  26736-3 0  9996
2 63175  88.9763 320.1153 0017906 123.3140 236.9729 13.50976101 47302
QIANFAN-90              
1 63176U 25046T   25346.01671855  .00000170  00000+0  24476-3 0  9996
2 63176  88.9762 320.0847 0014879 120.8121 239.4497 13.50976947 47328
QIANFAN-91              
1 66033U 25233A   25345.65107105 -.01821579  00000+0 -19189+1 0  9999
2 66033  88.9953  62.2752 0019170  43.4822 316.7853 13.78992626  7820
QIANFAN-92              
1 66034U 25233B   25345.57028076 -.01935720  00000+0 -19287+1 0  9993
2 66034  88.9949  62.2819 0022496  54.9735 305.3541 13.81854119  7810
QIANFAN-93              
1 66035U 25233C   25345.58402443 -.01952627  00000+0 -20710+1 0  9997
2 66035  88.9954  62.2834 0017044  47.1076 313.1519 13.78213485  7812
QIANFAN-94              
1 66036U 25233D   25345.98897066 -.02002180  00000+0 -19902+1 0  9993
2 66036  88.9955  62.2339 0020651  57.6898 302.6268 13.82148012  7878
QIANFAN-95              
1 66037U 25233E   25345.62640046  .00000736  00000+0  36127-3 0  9991
2 66037  88.9962  62.1803 0015138  48.0464 312.2012 14.16648206  7871
QIANFAN-96              
1 66038U 25233F   25345.46727471  .00000303  00000+0  27214-3 0  9999
2 66038  88.9961  62.3036 0017529  51.0592 309.2136 13.81486488  7790
QIANFAN-97              
1 66039U 25233G   25345.43438347  .00000341  00000+0  28894-3 0  9995
2 66039  88.9966  62.2998 0017746  51.1051 309.1699 13.85190103  7797
QIANFAN-98              
1 66040U 25233H   25345.49626984  .00000137  00000+0  86418-4 0  9999
2 66040  88.9960  62.2345 0016549  48.7367 311.5234 13.98143799  7831
QIANFAN-99              
1 66041U 25233J   25345.43428171  .00000448  00000+0  38869-3 0  9993
2 66041  88.9960  62.2995 0017165  47.7742 312.4881 13.84333261  7797
QIANFAN-100             
1 66042U 25233K   25345.59017554  .00000511  00000+0  37186-3 0  9992
2 66042  88.9962  62.2304 0017175  51.7353 308.5366 13.94645587  7846
QIANFAN-101             
1 66043U 25233L   25345.96486996  .00000423  00000+0  16896-3 0  9991
2 66043  88.9962  62.1195 0016117  44.7925 315.4567 14.26675521  7933
QIANFAN-102             
1 66044U 25233M   25345.67411932  .00000268  00000+0  21949-3 0  9990
2 66044  88.9962  62.2613 0016405  51.1132 309.1500 13.86602555  7830
QIANFAN-103             
1 66045U 25233N   25345.52184811  .00000322  00000+0  28017-3 0  9992
2 66045  88.9960  62.2941 0016845  49.0629 311.1996 13.83461814  7805
QIANFAN-104             
1 66046U 25233P   25345.68024675  .00000318  00000+0  26513-3 0  9995
2 66046  88.9959  62.2627 0015866  53.6444 306.6189 13.85883275  7830
QIANFAN-105             
1 66047U 25233Q   25345.99042157  .00000470  00000+0  31753-3 0  9996
2 66047  88.9960  62.2164 0016701  46.3787 313.8773 13.98692808  7885
QIANFAN-106             
1 66048U 25233R   25345.99484276  .00000076  00000+0  55077-4 0  9997
2 66048  88.9956  62.2340 0017062  46.3518 313.9064 13.85185339  7875
QIANFAN-107             
1 66049U 25233S   25345.47462578  .00000190  00000+0  15786-3 0  9991
2 66049  88.9956  62.2860 0016414  50.1974 310.0638 13.84321151  7803
QIANFAN-108             
1 66050U 25233T   25345.98720501  .00000200  00000+0  16692-3 0  9991
2 66050  88.9960  62.2337 0016664  50.3087 309.9549 13.84462729  7875
